0 SCOUT G-1 DEB
1 18525U 86088D   13281.74320738  .00000075  00000-0  57553-4 0  9777
2 18525 089.9744 004.5006 0003653 245.9497 238.2455 13.84415166356952
0 SCOUT G-1 DEB
1 18525U 86088D   13283.24677367  .00000081  00000-0  63230-4 0  9784
2 18525 089.9744 004.4963 0003784 239.4401 173.7629 13.84415617357162
0 SCOUT G-1 DEB
1 18525U 86088D   13286.21650998  .00000114  00000-0  92692-4 0  9809
2 18525 089.9743 004.4879 0004098 228.3241 216.6351 13.84415938357575
0 SCOUT G-1 DEB
1 18525U 86088D   13287.22837557  .00000131  00000-0  10823-3 0  9814
2 18525 089.9742 004.4852 0004211 224.7766 220.1158 13.84416170357714
0 SCOUT G-1 DEB
1 18525U 86088D   13288.52541850  .00000157  00000-0  13070-3 0  9822
2 18525 089.9739 004.4815 0004352 220.0366 205.2112 13.84416419357899
0 SCOUT G-1 DEB
1 18525U 86088D   13289.98283801  .00000146  00000-0  12162-3 0  9832
2 18525 089.9735 004.4776 0004508 215.0689 269.3442 13.84416845358099
0 SCOUT G-1 DEB
1 18525U 86088D   13292.20906859  .00000145  00000-0  11998-3 0  9842
2 18525 089.9732 004.4714 0004756 207.3276 205.5765 13.84417881358405
0 SCOUT G-1 DEB
1 18525U 86088D   13293.22107564  .00000154  00000-0  12809-3 0  9854
2 18525 089.9731 004.4687 0004894 204.8612 208.6877 13.84418289358548
0 SCOUT G-1 DEB
1 18525U 86088D   13295.17389166  .00000139  00000-0  11506-3 0  9867
2 18525 089.9730 004.4627 0005107 198.7621 221.4516 13.84418785358814
